"Latitude","CMT Primary","Segment","Site Name","Longitude","Region","Engagement","Country","City","Training","Site Code"
"5.317","No","Chocolate","Abidjan","-4.017","META","Zero","Ivory Coast","Abidjan","None","ABJ"
"5.466997","No","Chocolate","Accra","-0.164795","META","Zero","Ghana","Accra","None","ACC"
"31.57780","No","Chocolate","Albany","-84.17562","North America","Partial: Training 2","United States","Albany","2014-Submitted","ALB"
"45.9","No","Petcare","Annecy","6.1166667","Western Europe","Zero","France","Annecy","None","ANN"
"35.300177","No","Petcare","Ft. Smith","-94.289684","North America","Zero","United States","Ft. Smith","None","ARK"
"41.0666667","Yes","Petcare","Arevalo","-4.7166667","Western Europe","Partial: CMT 2","Spain","Arevalo, Avila","None","ARV"
"-33.693695","Yes","Wrigley","Asquith/Wrigley Austrailia","151.115003","Asia Pacific","Full","Australia","Asquith NSW","2014-Submitted","ASQ"
"14.5709688","No","Wrigley","Antipolo","121.0255233","Asia Pacific","Zero","Philippines","Makati","None","ATP"
"37.983","No","Food","Athens","23.733","Western Europe","Zero","Greece","Peania","None","ATH"
"21.5","No","Chocolate","Saudi Arabia","39.17","META","Zero","Saudi Arabia","TBD","None","ATS"
"-36.8666667","Yes","Petcare","Auckland","174.7666667","Asia Pacific","Partial: CMT 2","New Zealand","Auckland","None","AUK"
"41.884684","Yes","Wrigley","Northwestern Flavors","-88.211753","North America","Partial: CMT 2","United States","Chicago","None","AUR"
"30.9044857","No","Wrigley","Wrigley Baddi","77.0967357","META","Partial: CMT 2","Zero","India","Baddi","None","BAD"
"-14.7666667","No","Chocolate","Bahia","-39.45","Latin America","Zero","Brazil","Bahia","None","BAH"
"12.9750003","No","Wrigley","Wrigley Bangalore","77.6144217","META","Zero","India","Bangalore","None","BAN"
"18.2420","No","Chocolate","Bayamon","-66.1139","Latin America","Zero","Puerto Rico","Bayamon","None","BAW"
"10.951304","No","Petcare","Barranquilla","-74.789429","Latin America","Zero","Colombia","Barranquilla","None","BAR"
"18.38303","Yes","Chocolate","Guaynabo","-66.162643","Latin America","Partial: CMT 2","Puerto Rico","Guaynabo","None","BAY"
"48.25","Yes","Chocolate","Breitenbrunn","14.1666667","Western Europe","Partial: CMT 2","Austria","Breitenbrunn","None","BBN"
"39.9288889","Yes","Multisales","BJ Office","116.3883333","Asia Pacific","Partial: CMT 2","China","Beijing","None","BEI"
"36.36885","No","Chocolate","Bentonville","-94.20484","North America","Zero","United States","Rogers","None","BEN"
"48.0428785","Yes","Wrigley","BHM","7.5603012","Western Europe","Partial: CMT 2","France","Biesheim","None","BHM"
"43.8833333","No","Food","Bolton","-79.7333333","North America","Partial: Training 2","Canada","Bolton","2014-Submitted","BFP"
"4.6473016","Yes","Petcare","Bogota","-74.0962677","Latin America","Partial: CMT 2","Colombia","Bogota","None","BOG"
"43.874200","No","Petcare","BPP","-79.730660","North America","Zero","Canada","Bolton","None","BPP"
"44.809956","Yes","Food","Serbia","20.380088","Central Europe/CIS","Partial: CMT 2","Serbia","New Belgrade","None","BLG"
"46.7","Yes","Petcare","Bokros","20.15","Central Europe/CIS","Partial: CMT 2","Hungary","Csongrad-Bokros","None","BOK"
"48.15","No","Petcare","Bratislava","17.1166666","Central Europe/CIS","Zero","Slovakia","Bratislava 3","None","BRA"
"43.8833333","No","Food","Bolton","-79.7333333","North America","Zero","Canada","Bolton","None","BOL"
"48.0166667","Yes","Petcare","Bruck","16.7666667","Western Europe","Partial: CMT 2","Austria","Bruck/Leitha","None","BRK"
"36.035288","No","Petcare","Brentwood","-86.805725","North America","Zero","United States","Franklin","None","BRN"
"48.14589","No","Royal Canin","Bratislava","17.10714","Central Europe/CIS","Zero","Slovakia","Bratislava","None","BRT"
"50.8714709","Yes","Food","Brussels","4.4616308","Western Europe","Partial: CMT 2","Belgium","Sint-Stevens-Woluwe","None","BRU"
"50.86920","No","Multisales","Brussels","4.45024","Western Europe","Zero","Belgium","Sint-Stevens-Woluwe","None","BRU (SH)"
"44.39258","No","Food","Bucharest","26.171494","Central Europe/CIS","Zero","Romania","Bucharest","None","BUC"
"-33.428272","Yes","Petcare","Bathurst","149.639102","Asia Pacific","Partial: CMT 2","Australia","Raglan","None","BTH"
"-34.5875","No","Petcare","Buenos Aires","-58.6725","Latin America","Zero","Argentina","San Isidro","None","BUE"
"47.478668","No","Food","Budapest","19.027529","Central Europe/CIS","Zero","Hungary","Budapest","None","BUD"
"41.75090","No","Chocolate","Burr Ridge","-87.92059","North America","Partial: Training 2","United States","Burr Ridge","2014-Submitted","BUR"
"30.0333333","No","Chocolate","Cairo","31.35","META","Zero","Egypt","Maadi","None","CAI"
"41.530442","Yes","Wrigley","Santiga/Wrigley Cafosa","2.145701","Western Europe","Partial: CMT 2","Spain","Santiga","None","CAF"
"51.04532","No","Wrigley","Calgary","-114.05810","North America","Zero","Canada","Calgary","None","CAL"
"-22.90994","No","Royal Canin","Campinas","-47.06263","Latin America","Zero","Brazil","Campinas","None","CAM"
"46.202185","No","Royal Canin","Canals","1.264387","Western Europe","Zero","Western Europe","Canals","None","CAN"
"10.49102","No","Petcare","Caracas","-66.90206","Latin America","Zero","Venezuela","Caracas","None","CAR"
"33.5930556","No","Chocolate","Morocco","-7.6163889","META","Zero","Morocco","Casablanca","None","CAS"
"-33.9237762","No","Food","Cape Town","18.4233455","META","Zero","South Africa","Cape Town","None","CAP"
"37.755821","Yes","Petcare","Tracy","-121.417422","North America","Partial: CMT 2","United States","Tracy","None","CAT"
"30.57227","No","Petcare","Chengdu","104.06654","Asia Pacific","Zero","China","Chengdu","None","CDP"
"31.223995","No","Petcare","Christchurch","121.473019","Asia Pacific","Zero","New Zealand","Christchurch","None","CHC"
"40.28889","No","Petcare","Chalfont","-75.20966","North America","Zero","United States","Chalfont","None","CHA"
"54.3569983","No","Chocolate","Cherdakly","48.8499488","Central Europe/CIS","Zero","Russia","Cherdakly","None","CHE"
"48.0833333","Yes","Food","Chateaudun","1.3333333","Western Europe","Partial: CMT 2","France","Chateaudun","None","CHD"
"41.9188","No","Chocolate","Chicago","-87.7947","North America","Partial: Training 2","United States","Chicago","2014-Submitted","CHI"
"39.13980","No","Multisales","Cincinnatti","-84.50595","North America","Zero","United States","Cincinnatti","None","CIN"
"30.6666667","No","Chocolate","Chengdu","104.0666667","Asia Pacific","Zero","China","Chengdu","None","CHU"
"44.17333","No","Royal Canin","Constanta","28.63833","Central Europe/CIS","Zero","Romania","Constanta","None","CON"
"35.199412","Yes","Chocolate","Cleveland","-84.868591","North America","Partial: CMT 1","United States","Cleveland","2014-NotSubmitted","CLV"
"55.6329846","Yes","Food","Copenhagen","12.581538","Western Europe","Partial: CMT 2","Denmark","Copenhagen S","None","COP"
"-22.947072","Yes","Petcare","CPS","-47.118623","Latin America","Partial: CMT 2","Brazil","Campinas","None","CPS"
"19.43","No","Petcare","Del. Coyoac?n","-99.14","Latin America","Zero","Mexico","Del. Coyoac?n","None","COY"
"23.1206008","No","Wrigley","Guangzhou","113.3283946","Asia Pacific","Zero","China","Guangzhou","None","CSS"
"18.92184","No","Petcare","Cuernavaca Morelos","-99.22661","Latin America","Zero","Mexico","Cuernavaca Morelos","None","CVA"
"40.801108","Yes","Petcare","Dalton","-81.68777","North America","Partial: CMT 2","United States","Dalton","None","DAL"
"-22.78630","No","Royal Canin","Duque de Caxias","-43.30531","Latin America","Zero","Brazil","Duque de Caxias","None","DCB"
"45.87705","No","Royal Canin","DEVA","22.91302","Central Europe/CIS","Zero","Romania","DEVA","None","DEV"
"20.6075821","No","Petcare","Queretaro","-100.0807298","Latin America","Zero","Mexico","Queretaro","None","DTS"
"48.7666667","No","Chocolate","Steinbourg","7.4166667","Western Europe","Zero","France","Steinbourg","None","DOE"
"45.404356","Yes","Petcare","Assago","9.129896","Western Europe","Partial: CMT 2","Italy","Assago","None","DOL"
"53.3330556","No","Food","Dublin","-6.2488889","Western Europe","Zero","Ireland","Dublin","None","DUB"
"25.047664","No","Chocolate","Dubai DXD","55.181741","META","Zero","United Arab Emirates","Dubai","None","DXD"
"38.76992","No","Royal Canin","Earth City","-90.46675","North America","Zero","United States","Earth City","None","ECI"
"36.03366","No","Chocolate","Mars Retail Group Las Vegas","-115.00236","North America","Zero","United States","Henderson","None","EGM"
"36.072603","No","Chocolate","Mars Chocolate NA Henderson","-115.071108","North America","Zero","United States","Henderson","None","EGM2"
"48.0166667","No","Food","Bruck/Leitha","16.7666667","Central Europe/CIS","Zero","Austria","Bruck/Leitha","None","EFX"
"56.85","Yes","Chocolate","Ekaterinburg","60.6","Central Europe/CIS","Partial: CMT 2","Russia","Ekaterinburg","None","EKA"
"40.15355","No","Chocolate","Elizabethtown","-76.59862","North America","Zero","United States","Elizabethtown","None","ELZ"
"48.5666667","Yes","Petcare","Ernolsheim","7.5666667","Western Europe","Partial: CMT 2","France","Ernolsheim zur Bruche","None","ERN"
"41.904816","No","Wrigley","Chicago","-87.656732","North America","Zero","United States","Chicago","None","ETC"
"51.6166667","No","Chocolate","Chocoalte Veghel","5.55","Western Europe","Zero","Netherlands","Veghel","None","EVE"
"51.6166667","No","Petcare","Petcare Veghel","5.55","Western Europe","Zero","Netherlands","Veghel","None","EVE2"
"41.033333333333","No","Chocolate","Istanbul","28.966666666667","META","Zero","Turkey","Esentepe, Istanbul","None","EXI"
"33.88","No","Chocolate","Lebanon","35.50","META","Zero","Lebanon","Beirut","None","EXL"
"25.047664","No","Chocolate","Dubai","55.181741","META","Zero","United Arab Emirates","Dubai","None","EXD"
"-25.6241667","No","Petcare","Rosslyn","28.0941667","META","Zero","South Africa","Rosslyn","None","EXR"
"49.0","Yes","Drinks","Roissy","2.5166667","Western Europe","Partial: CMT 2","France","Roissy","None","FSP"
"51.2666667","Yes","Drinks","Basingstoke","-1.0833333","Western Europe","Full","United Kingdom","Basingstoke","2014-Submitted","FSQ"
"52.922845","Yes","Drinks","Verden (Drinks)","9.287375","Western Europe","Partial: CMT 2","Germany","Verden/Aller","None","FSV"
"35.933315","Yes","Petcare","FTN","-86.805596","North America","Partial: CMT 1","United States","Franklin","2014-NotSubmitted","FTN"
"55.7127778","Yes","Petcare","Gargzdai","21.4033333","Central Europe/CIS","Partial: CMT 2","Lithuania","Gargzdai","None","GAR"
"20.4167","No","Petcare","Poncitlan","-102.9000","Latin America","Zero","Mexico","Poncitlan","None","GDL"
"41.9071454","Yes","Wrigley","Wrigley Global Innovation Center","-87.656372","North America","Full","United States","Chicago","2014-Submitted","GIC"
"39.08","No","Other","Germantown","-77.15","North America","Zero","United States","Germantown","None","GMD"
"36.2969938","No","Wrigley","Wrigley Guangzhou","120.0091596","Asia Pacific","Zero","China","Guangzhou","None","GNZ"
"28.45950","No","Chocolate","Gurgaon","77.02664","META","Zero","India","Gurgaon","None","GRN"
"34.1580532","Yes","Wrigley","Wrigley Gainesville","-83.9108968","North America","Partial: CMT 2","United States","Flowery Branch","None","GNV"
"33.3953","Yes","Food","Greenville, MS","-91.0501","North America","Full","United States","Greenville","2014-Submitted","GRV"
"52.40637","No","Other","Poznan","16.92517","Central Europe/CIS","Zero","Poland","Poznan","None","GSP"
"-23.4166667","No","Other","Guararema (MIS)","-46.0333333","Latin America","Zero","Brazil","Guararema","None","GUA (MIS)"
"-23.4166667","No","Chocolate","Guararema","-46.0333333","Latin America","Zero","Brazil","Guararema","None","GUA"
"23.1166667","No","Chocolate","Guangzhou","113.25","Asia Pacific","Zero","China","Guangzhou","None","GUN"
"48.8166667","No","Chocolate","Haguenau","7.7833333","Western Europe","Zero","France","Haguenau","None","HAG"
"40.8622999","No","Chocolate","Hackettstown (HKP)","-74.8272953","North America","Partial: Training 2","United States","Hackettstown","2014-Submitted","HKP"
"10.29","No","Petcare","Ho Chi Minh City","106.23","Asia Pacific","Zero","Vietnam","Ho Chi Minh City","None","HCM"
"60.190823","Yes","Food","Helsinki","24.973125","Western Europe","Partial: CMT 1","Finland","Helsinki","2014-NotSubmitted","HEL"
"-39.930089","Yes","Petcare","HPT","175.047890","Asia Pacific","Partial: CMT 2","New Zealand","Wanganui","None","HPT"
"40.8622999","No","Chocolate","Hackettstown","-74.8272953","North America","Partial: Training 2","United States","Hackettstown","2014-Submitted","HKT"
"40.309299","No","Petcare","Huairou (Pet)","116.627403","Asia Pacific","Zero","China","Beijing","None","HPT"
"17.3752778","No","Petcare","Hyderabad","78.4744444","META","Zero","India","Hyderabad","None","HYD"
"51.52549","Yes","Other","MIS UK","-0.63184","Western Europe","Partial: CMT 2","United Kingdom","Slough","None","ISB"
"40.3133333","No","Chocolate","Huairou (Snack)","116.6288889","Asia Pacific","Zero","China","Huairou","None","HUA"
"23.1525002","No","Other","Mars IS China","113.2519989","Asia Pacific","Zero","China","Zhujiang Xincheng","None","ISC"
"54.9166667","No","Other","Moscow MIS","38.1","Central Europe/CIS","Zero","RUSSIA","Stupino-1","None","ISS"
"40.03157","No","Other","Exton - Mars IS Data Center","-75.63001","North America","Zero","United States","Exton","None","ISX"
"-6.305","No","Food","Jakarta","106.6511111","Asia Pacific","Zero","Indonesia","Jakarta Selatan","None","JAK"
"41.906177","No","Wrigley","ITC","-87.653566","North America","Zero","United States","Chicago","None","ITC"
"52.22934","Yes","Chocolate","MARS Polska sp. z o.o.","20.23836","Central Europe/CIS","Partial: CMT 2","Poland","Sochaczew","None","JAN"
"54.55186","No","Royal Canin","Kaluga","36.28510","Central Europe/CIS","Zero","Russia","Kaluga","None","KAL"
"21.52","No","Chocolate","APT","39.22","META","Zero","Saudi Arabia","Jeddah","None","JED"
"39.152594","No","Petcare","N. Kansas City","-94.582071","North America","Zero","United States","Kansas City","None","KAN"
"30.710653756093375","No","Chocolate","JXG","120.70560693740845","Asia Pacific","Zero","China","Jiaxing City","None","JXG"
"22.799585","No","Petcare","Kaohsiung","120.294971","Asia Pacific","Zero","Taiwan","TAIPEI CITY","None","KAO"
"21.54333","No","Chocolate","KEC","39.17278","META","Zero","Saudi Arabia","Jeddah","None","KEC"
"50.4333333","Yes","Chocolate","Kiev","30.5166667","Central Europe/CIS","Partial: CMT 2","Ukraine","Kiev","None","KEV"
"39.973079102622144","No","Petcare","Columbus","-83.13495576381683","North America","Zero","United States","Columbus","None","KKC"
"39.47703","No","Petcare","Mattoon","-88.36883","North America","Zero","United States","Mattoon","None","KKM"
"39.5539041","No","Petcare","Reno","-119.551883","North America","Zero","United States","Sparks","None","KKR"
"34.69008","No","Petcare","Kobe","135.19551","Asia Pacific","Zero","Japan","Kobe","None","KOB"
"33.9451036","No","Petcare","Columbia","-80.9376527","North America","Zero","United States","Columbia","None","KKS"
"52.742303","No","Food","King's Lynn","0.410887","Western Europe","Zero","United Kingdom","King's Lynn","None","KLN"
"39.114053","No","Petcare","Kansas City","-94.627464","North America","Zero","United States","Kansas City","None","KPP"
"37.075587","No","Petcare","KSH","-94.644492","North America","Zero","United States","Galena","None","KSH"
"36.103937","No","Chocolate","Las Vegas","-115.172639","North America","Zero","United States","Las Vegas","None","LAS"
"45.0421487","No","Chocolate","Krasnodar","38.9806403","Central Europe/CIS","Zero","Russia","Krasnodar","None","KRA"
"44.56595","No","Royal Canin","la B?tie Neuve","6.19406","Western Europe","Zero","France","la B?tie Neuve","None","LBN"
"-12.05","No","Petcare","Lima","-77.05","Latin America","Zero","Peru","San Isidro / Lima","None","LIM"
"46.0552778","Yes","Food","Ljubljana","14.5144444","Central Europe/CIS","Partial: CMT 2","Slovenia","Ljubljana","None","LJU"
"36.2081","Yes","Petcare","Lebanon, TN","-86.2911","North America","Full","United States","Lebanon","2014-Submitted","LEB"
"51.51176730041815","No","Chocolate","London","-0.12831687927245594","Western Europe","Zero","United Kingdom","London","None","LON"
"36.1856309","No","Petcare","Lebanon","-86.2708368","North America","Zero","United States","Lebanon","None","LTN"
"38.6833333","Yes","Food","Oeiras","-9.3166667","Western Europe","Partial: CMT 2","Portugal","Leiao","None","LIS"
"54.8425","No","Petcare","Luzhniki","38.0958333","Central Europe/CIS","Zero","RUSSIA","Luzhsniki","None","LUZ"
"54.9361111","No","Food","Lukovitsy","39.0166667","Central Europe/CIS","Zero","RUSSIA","Lukovitsy","None","LUK"
"-34.61945","No","Royal Canin","Mar de Plata","-58.64775","Latin America","Zero","Argentina","Mar de Plata","None","MAR"
"14.5569444","No","Petcare","Manila","121.0294444","Asia Pacific","Zero","Philippines","Makati City","None","MAN"
"40.393159","No","Petcare","MBO","-3.850879","Western Europe","Zero","Spain","TBD","None","MBO"
"51.5269188","No","Chocolate","Slough","-0.6307037","Western Europe","Zero","United Kingdom","Slough","None","MCC"
"40.4","Yes","Petcare","Madrid","-3.6833333","Western Europe","Partial: CMT 2","Spain","Las Rozas, Madrid","None","MAD"
"-37.5356617936137","Yes","Chocolate","Ballarat","143.80292415618896","Asia Pacific","Partial: CMT 2","Australia","Wendouree","None","MCA"
"52.6333333","Yes","Petcare","Melton","-1.1333333","Western Europe","Full","United Kingdom","Leicestershire","2014-Submitted","MEL"
"-34.655063","Yes","Petcare","Mercedes","-59.331579","Latin America","Partial: CMT 2","Argentina","Mercedes","None","MER"
"19.4","Yes","Petcare","Mexico City","-99.05","Latin America","Full","Mexico","Mexico City","2014-Submitted","MEX"
"-33.326084","Yes","Food","Wyong","151.417129","Asia Pacific","Partial: CMT 2","Australia","Berkeley Vale","None","MFA"
"20.58879","No","Petcare","Queretaro","-100.38989","Latin America","Zero","Mexico","Queretaro","None","MFQ"
"40.895827","No","Chocolate","Mars Global Chocolate (Mount Olive)","-74.728133","North America","Zero","United States","Mt. Olive","None","MGC"
"41.87811","No","Other","MGI","-87.62980","North America","Zero","United States","Chicago","None","MGI"
"52.0333333","Yes","Petcare","Milton Keynes","-0.7","Western Europe","Partial: CMT 2","United Kingdom","Milton Keynes","None","MIL"
"54.3214798","Yes","Petcare","MIRNY","48.3856504","Central Europe/CIS","Partial: CMT 2","RUSSIA","Ulyanovsk","None","MIR"
"52.2833333","Yes","Petcare","Minden","8.9166667","Western Europe","Partial: CMT 2","Germany","Minden","None","MIN"
"3.1666667","Yes","Petcare","Kuala Lumpur","101.7","Asia Pacific","Partial: CMT 2","Malaysia","Petaling Jaya","None","MKL"
"-37.8166667","No","Chocolate","Melbourne","144.9666667","Asia Pacific","Zero","Australia","Melbourne","None","MLB"
"40.893516","No","Other","Mount Olive - Americas Treasury & Benefit Center","-74.719563","North America","Zero","United States","Mt. Olive","None","MOC"
"50.4944","No","Other","MOG","7.7597","Western Europe","Zero","Germany","Mogendorf","None","MOG"
"50.11933","No","Royal Canin","Modlniczka","19.85463","Central Europe/CIS","Zero","Poland","Modlniczka","None","MOL"
"55.75","No","Chocolate","Moscow","37.62","Central Europe/CIS","Zero","RUSSIA","Moscow","None","MOS"
"-22.4333333","Yes","Petcare","Mogi Mirim","-46.95","Latin America","Partial: CMT 2","Brazil","Mogi Mirim","None","MOM"
"53.9","No","Chocolate","Minsk","27.5666667","Central Europe/CIS","Zero","BELARUS","Minsk","None","MSK"
"44.977489","No","Chocolate","Minneapolis","-93.27414","North America","Zero","United States","Minneapolis","None","MSP"
"55.75583","No","Petcare","Moscow site","37.61730","Central Europe/CIS","Zero","Russia","Moscow","None","MOW"
"40.898097","No","Chocolate","Mars Retail Group Mt. Arlington","-74.638833","North America","Zero","United States","Mt. Arlington","None","MTA"
"55.75583","No","Royal Canin","Moscow","37.61730","Central Europe/CIS","Zero","Russia","Moscow","None","MSW"
"40.898097","No","Chocolate","Dove Chocolate Discoveries Mount Arlington","-74.638833","North America","Zero","United States","Mount Arlington","None","MTA2"
"45.50867","No","Wrigley","Montreal","-73.55399","North America","Zero","Canada","Montreal","None","MTL"
"25.2","Yes","Chocolate","Montemorelos","-99.8166667","Latin America","Partial: CMT 2","Mexico","Montemorelos","None","MTM"
"40.893516","Yes","Other","Mount Olive Data Center","-74.719563","North America","Partial: CMT 2","United States","Mt. Olive","None","MTO"
"40.851488","No","Other","Mount Olive Shared Services","-74.732941","North America","Zero","United States","Mt. Olive","None","MTO (SS)"
"25.686614","Yes","Wrigley","Wrigley Mex?co Business Office","-100.316113","Latin America","Full","Mexico","Monterrey","2014-Submitted","MTY"
"40.8622999","No","Chocolate","North America Sales (Hackettstown)","-74.8272953","North America","Zero","United States","Hackettstown","None","NAS"
"-1.3020308","Yes","Wrigley","Nairobi/Wrigley East Africa","36.8380217","META","Partial: CMT 2","Kenya","Nairobi","None","NAI"
"38.937217","Yes","Other","McLean","-77.181755","North America","Partial: CMT 1","United States","McLean","2014-NotSubmitted","MVA"
"44.077058","No","Chocolate","Newmarket","-79.42615","North America","Zero","Canada","Newmarket","None","NMK"
"55.0411111","Yes","Petcare","Novosibirsk","82.9344444","Central Europe/CIS","Partial: CMT 2","RUSSIA","Novosibirsk","None","NOV"
"42.5254977","No","Petcare","North Sioux City","-96.496056","North America","Zero","United States","North Sioux City","None","NSC"
"40.761431","No","Chocolate","New York","-73.98423","North America","Zero","United States","New York","None","NYC"
"51.8333333","Yes","Food","Oud-Beijerland","4.4166667","Western Europe","Partial: CMT 2","Netherlands","Oud-Beijerland","None","OBL"
"39.537179","No","Petcare","Washington Court House","-83.399878","North America","Zero","United States","Washington Court House","None","OHW"
"35.483693","No","Petcare","Clinton","-98.973051","North America","Zero","United States","Clinton","None","OKC"
"30.0333333","No","Chocolate","October 6 City","31.35","META","Zero","Egypt","October 6 City","None","OCT"
"55.61792","Yes","Chocolate","Odintsovo","36.79597","Central Europe/CIS","Partial: CMT 2","Russia","Odintsovsky District","None","OKF"
"36.867158558793236","No","Petcare","Miami","-94.8545515537262","North America","Zero","United States","Miami","None","OKM"
"51.152917","Yes","Food","Olen","4.871385","Western Europe","Partial: CMT 2","Belgium","Olen","None","OLN"
"28.45143","No","Chocolate","Orlando","-81.400838","North America","Zero","United States","Orlando","None","ORL"
"43.7191549","Yes","Wrigley","Toronto/Wrigley Canada","-79.3502773","North America","Full","Canada","Toronto","2014-Submitted","ONT"
"33.448559","No","Petcare","Orangeburg","-80.845771","North America","Zero","United States","Orangeburg","None","ORA"
"59.9166667","Yes","Food","Oslo","10.75","Western Europe","Partial: CMT 1","Norway","Oslo","2014-NotSubmitted","OSL"
"34.686016","Yes","Petcare","Osaka","135.505714","Asia Pacific","Partial: CMT 2","Japan","Osaka","None","OSA"
"8.983333","No","Chocolate","Panama City","-79.516667","Latin America","Zero","Panama","Panama City","None","PAN"
"52.5833333","No","Petcare","Peterborough","-0.25","Western Europe","Zero","United Kingdom","Peterborough","None","PBO"
"36.78060","No","Food","Fresno","-119.79287","North America","Zero","United States","Fresno","None","PCB"
"14.76194444","Yes","Petcare","Pak Chong","101.45","Asia Pacific","Partial: CMT 2","Thailand","Pak Chong","None","PCH"
"50.062446","Yes","Petcare","Mars Market - Michelska 1552/58, Praha 4","14.440455","Central Europe/CIS","Partial: CMT 2","Czech Republic","Praha 4","None","PCZ"
"-25.09942","No","Petcare","Ponta Grossa","-50.15832","Latin America","Zero","Brazil","Ponta Grossa","None","PGA"
"33.44838","No","Petcare","Phoenix","-112.07404","North America","Zero","United States","Phoenix","None","PHX"
"50.4133053","Yes","Wrigley","Plymouth/Wrigley UK","-4.0987224","Western Europe","Partial: CMT 2","United Kingdom","Plymouth","None","PLY"
"22.7003407","No","Wrigley","PNY","113.5467849","Asia Pacific","Zero","China","Panyu City","None","PNY"
"45.53825","No","Petcare","Portland (POR)","-122.65649","North America","Zero","United States","Portland","None","POR"
"49.838957","Yes","Wrigley","Porici","14.674464","Central Europe/CIS","Partial: CMT 2","Czech Republic","Porici nad Sazavou","None","PNS"
"52.3701344","Yes","Wrigley","POZ","16.9569844","Central Europe/CIS","Partial: CMT 2","Poland","Ponzan","None","POZ"
"45.52345","No","Other","Portland","-122.67621","North America","Zero","United States","Portland","None","POV"
"20.591652120829156","Yes","Chocolate","Queretaro Chocolate","-100.38757324218751","Latin America","Partial: CMT 2","Mexico","Queretaro","None","QRC"
"20.6","Yes","Petcare","Queretaro","-100.3833333","Latin America","Partial: CMT 2","Mexico","Queretaro","None","QRO"
"33.882815","Yes","Food","Rancho Dominquez","-118.235035","North America","Full","United States","Rancho Dominguez","2014-Submitted","RAN"
"40.0689976","Yes","Royal Canin","Madrid","-3.7480957","Western Europe","Full","Spain","Madrid","2014-Submitted","RAD"
"43.3557283","No","Royal Canin","Artem","132.186676","Central Europe/CIS","Zero","Russia","Artem","None","RAR"
"-33.8271347","No","Royal Canin","Capetown","18.5329594","META","Zero","South Africa","Capetown","None","RAP"
"-36.84846","No","Royal Canin","Auckland","174.76333","Asia Pacific","Zero","New Zealand","Auckland","None","RAU"
"41.284549","No","Royal Canin","Barcelona","1.990254","Western Europe","Zero","Spain","Barcelona","None","RBA"
"44.435278","No","Royal Canin","Buccharest","26.102778","Central Europe/CIS","Partial: Training 2","Romania","Buccharest","2014-Submitted","RBC"
"44.8811846","No","Royal Canin","Beychac","-0.3580789","Western Europe","Zero","France","Beychac","None","RBE"
"47.45365","No","Royal Canin","Budapest","18.97465","Central Europe/CIS","Zero","Hungary","Budapest","None","RBD"
"44.82056","No","Royal Canin","Belgrade","20.46222","Central Europe/CIS","Zero","Serbia","Belgrade","None","RBG"
"16.26012","No","Royal Canin","Baie Mahaut","-61.59030","Latin America","Zero","Guadaloupe","Baie Mahault","None","RBM"
"50.7955117","No","Royal Canin","Brussels","4.4062792","Western Europe","Zero","Belgium","Brussels","None","RBR"
"12.97160","No","Royal Canin","Bangalore","77.59456","META","Zero","India","Bangalore","None","RBN"
"19.07598","No","Royal Canin","Mumbai","72.87766","META","Zero","India","Mumbai","None","RBH"
"13.7255001","Yes","Royal Canin","Bangkok","100.5260729","Asia Pacific","Partial: CMT 2","Thailand","Bangkok","None","RBT"
"50.096350","No","Royal Canin","Cambrai","3.239292","Western Europe","Zero","France","Les Rues des Vignes","None","RCC"
"48.0436532","No","Royal Canin","Buchloe","10.7125364","Western Europe","Zero","Germany","Buchloe","None","RBU"
"-21.915905","No","Royal Canin","Descalvado","-47.620268","Latin America","Zero","Brazil","Descalvado","None","RCD"
"-34.61","No","Royal Canin","Buenos Aires","-58.37","Latin America","Zero","Argentina","Buenos Aires","None","RCB"
"43.685081","Yes","Royal Canin","Aimargues","4.208849","Western Europe","Full","France","Aimargues","2014-Submitted","RCA"
"55.17453","No","Royal Canin","Chelyabinsk","61.42668","Central Europe/CIS","Zero","Russia","Chelyabinsk","None","RCE"
"47.440866","No","Royal Canin","Hunzenschwil","8.469661","Western Europe","Zero","Switzerland","Regendorf","None","RCH"
"60.252281","No","Royal Canin","Helsinki","25.01689","Western Europe","Zero","Finland","Helsinki","None","RCF"
"-34.849583","No","Royal Canin","La Matanza","-58.657086","Latin America","Zero","ITALY","Milan","None","RCM"
"38.722252","No","Royal Canin","Lisbon","-9.139337","Western Europe","Partial: Training 2","Portugal","TBD","2014-Submitted","RCO"
"51.088689","No","Royal Canin","Somerset","-2.513101","Western Europe","Zero","United Kingdom","Castle Cary","None","RCS"
"51.615789","No","Royal Canin","Veghel (RCN)","5.539240","Western Europe","Zero","Netherlands","Veghel","None","RCN"
"37.948544","No","Royal Canin","Rolla","-91.771530","North America","Zero","United States","Rolla","None","RCR"
"-31.3361666","No","Royal Canin","Cordoba","-64.1917232","Latin America","Zero","Argentina","Cordoba","None","RCT"
"45.6100114","No","Royal Canin","Chamb?ry","5.1671558","Western Europe","Zero","France","Chamb?ry","None","RCY"
"28.63531","No","Royal Canin","RDE","77.22496","META","Zero","India","Delhi","None","RDE"
"56.3624991","No","Royal Canin","RDM","37.541111","Central Europe/CIS","Zero","Russia","Dmitrov","None","RDM"
"46.7020864","No","Royal Canin","Dissay","0.4319404","Western Europe","Zero","France","Dissay","None","RDI"
"-21.91590","No","Royal Canin","Descalvado","-47.62027","Latin America","Zero","Brazil","Descalvado","None","RDO"
"-8.06","Yes","Petcare","Recife","-34.53","Latin America","Partial: CMT 2","Brazil","Abreu e Lima","None","REC"
"56.837814","No","Royal Canin","Ekaterimburg","60.596842","Central Europe/CIS","Zero","Russia","Ekaterimburg","None","REK"
"56.94965","No","Royal Canin","Riga","24.10519","Central Europe/CIS","Zero","Latvia","Riga","None","RGA"
"47.7200879","No","Royal Canin","Elven","-2.5877734","Western Europe","Zero","France","Elven","None","REV"
"50.9158006","No","Royal Canin","Frechen","6.8213139","Western Europe","Zero","Germany","Frechen","None","RFR"
"47.4441835","Yes","Royal Canin","Regensdorf","8.4587015","Western Europe","Full","Switzerland","Regensdorf","2014-Submitted","RGE"
"57.7488329","No","Royal Canin","Royal Canin Sweden","11.99787","Western Europe","Zero","Sweden","TBD","None","RGT"
"50.4763838","No","Royal Canin","Gosselies","4.4723781","Western Europe","Zero","Belgium","Gosselies","None","RGO"
"43.458057","No","Royal Canin","Royal Canin Guelph","-80.120834","North America","Partial: Training 2","Canada","Guelph","2014-Submitted","RGU"
"43.458057","No","Petcare","Royal Canin Canada Guelph","-80.120834","North America","Zero","Canada","Guelph","None","RGU2"
"47.5754859","No","Royal Canin","Hericourt","6.7584771","Western Europe","Zero","France","Hericourt","None","RHR"
"17.38504","No","Royal Canin","Hyderabad","78.48667","META","Zero","India","Hyderabad","None","RHI"
"56.95","No","Multisales","Riga","24.1","Central Europe/CIS","Zero","Latvia","Riga","None","RIG"
"52.268056","No","Royal Canin","Irkustsk","104.388889","Central Europe/CIS","Zero","Russia","Irkustsk","None","RIR"
"39.9571092","No","Royal Canin","Beijing","116.3207695","Asia Pacific","Zero","China","Beijing","None","RIJ"
"-6.30681","No","Royal Canin","Kelurahan Bintaro Jakarta Selatan","106.79269","Asia Pacific","Zero","Indonesia","Kelurahan Bintaro Jakarta Selatan","None","RIK"
"41.00527","No","Royal Canin","Istanbul","28.97696","Central Europe/CIS","Zero","Turkey","Istanbul","None","RIS"
"-26.0343412","No","Royal Canin","Johannesburg","27.9534284","META","Zero","South Africa","Johannesburg","None","RJH"
"54.7077522","No","Royal Canin","Kaliningrad","20.5444024","Central Europe/CIS","Zero","Russia","Kaliningrad","None","RKA"
"50.434167","No","Royal Canin","Kiev","30.559167","Central Europe/CIS","Zero","Ukraine","Kiev","None","RKI"
"56.01275","No","Royal Canin","Krasnoyarsk","92.92236","Central Europe/CIS","Zero","Russia","Krasnoyarsk","None","RKB"
"-26.20410","No","Royal Canin","RJO","28.04731","META","Zero","South Africa","Johannesburg","None","RJO"
"50.9106844","No","Royal Canin","K?ln","6.9707157","Western Europe","Partial: Training 2","Germany","K?ln","2014-Submitted","RKO"
"45.0267444","No","Royal Canin","Krasnodar","39.0856268","Central Europe/CIS","Zero","Russia","Krasnodar","None","RKR"
"22.3347484","No","Royal Canin","Kowloon","114.1623743","Asia Pacific","Zero","Hong Kong","Kowloon","None","RKW"
"38.7628522","No","Royal Canin","Lisbon","-9.179561","Western Europe","Zero","Portugal","Lisbon","None","RLI"
"44.57713","No","Royal Canin","RLR","2.07142","Western Europe","Zero","France","Le Port","None","RLR"
"19.410636","No","Royal Canin","Mexico City","-99.130588","Latin America","Zero","Mexico","Mexico City","None","RMC"
"40.5134295","No","Royal Canin","Madrid","-3.4094629","Western Europe","Zero","Spain","Madrid","None","RMD"
"43.8705071","No","Royal Canin","Margueritte","4.4469542","Western Europe","Zero","France","Margueritte","None","RMA"
"46.88390","No","Royal Canin","Magny-Cours","3.15205","Western Europe","Zero","France","Magny-Cours","None","RMG"
"48.5625501","No","Royal Canin","Mennecy","2.4303021","Western Europe","Zero","France","Mennecy","None","RME"
"53.9677874","No","Royal Canin","Minsk","27.5765553","Central Europe/CIS","Zero","BELARUS","Minsk","None","RMN"
"14.5584164","No","Royal Canin","Makati","121.0224601","Asia Pacific","Zero","Philippines","Makati","None","RMK"
"-37.939215","No","Royal Canin","Melbourne","145.126625","Asia Pacific","Partial: Training 2","Austria","Melbourne","2014-Submitted","RML"
"43.51830","No","Royal Canin","Milton","-79.87740","North America","Zero","Canada","Milton","None","RMO"
"50.03592","Yes","Royal Canin","Niepolomice","20.1838023","Central Europe/CIS","Partial: CMT 1","Poland","Niepolomice","2014-NotSubmitted","RNI"
"49.07351","No","Royal Canin","Mezidon Canon","-0.06962","Western Europe","Zero","France","Mezidon Canon","None","RNM"
"-31.333808","No","Royal Canin","Mar de Plata","-64.191742","Latin America","Zero","Argentina","Mar de Plata","None","RMP"
"43.51830","No","Royal Canin","Milton","-79.87740","North America","Zero","Canada","Milton","None","RMT"
"56.329917","No","Royal Canin","Nizhni-Novgorod","44.009192","Central Europe/CIS","Zero","Russia","Nizhni-Novgorod","None","RNN"
"19.0593648","No","Royal Canin","Mumbai","72.8346616","META","Zero","India","Mumbai","None","RMU"
"52.211418","No","Royal Canin","Oltarzew","20.757875","Central Europe/CIS","Zero","Poland","Oltarzew","None","ROL"
"37.94854","No","Royal Canin","Rolla","-91.77153","North America","Zero","United States","Rolla","None","ROA"
"55.0392304","No","Royal Canin","Novosibirsk","82.9278181","Central Europe/CIS","Zero","Russia","Novosibirsk","None","RNO"
"34.69374","No","Royal Canin","Osaka","135.50217","Asia Pacific","Zero","Japan","Osaka","None","ROS"
"51.81942","No","Royal Canin","Aleksandr?w L?dzki","19.30382","Central Europe/CIS","Zero","Poland","Aleksandr?w L?dzki","None","RPA"
"53.23764","No","Royal Canin","Kadzidlo","21.46648","Central Europe/CIS","Zero","Poland","Kadzidlo","None","RPK"
"50.0905579","No","Royal Canin","Praha","14.4480055","Central Europe/CIS","Zero","Czech Republic","Praha","None","RPR"
"43.432922","No","Royal Canin","Puslinch","-80.097349","North America","Zero","Canada","Puslinch","None","RPU"
"52.17047","No","Royal Canin","Pruszkow","20.81189","Central Europe/CIS","Zero","Poland","Pruszkow","None","RPP"
"52.40637","No","Royal Canin","Poznan","16.92517","Central Europe/CIS","Zero","Poland","Poznan","None","RPD"
"58.01389","No","Royal Canin","Perm","56.24889","Central Europe/CIS","Zero","Russia","Perm","None","RPE"
"56.460584","No","Royal Canin","Randers","10.036539","Western Europe","Zero","Denmark","Randers","None","RRA"
"-29.8227639","No","Royal Canin","Pinetown","30.8193491","META","Zero","South Africa","Pinetown","None","RPI"
"23.1475383","No","Royal Canin","Guangzhou","113.2470911","Asia Pacific","Zero","China","Guangzhou","None","RQU"
"49.4951246","No","Royal Canin","Souhesmes Rampont","4.3650297","Western Europe","Zero","France","Souhesmes Rampont","None","RRE"
"53.20216","No","Royal Canin","Samara","50.1596184","Central Europe/CIS","Zero","Russia","Samara","None","RSA"
"50.1827376","No","Royal Canin","Raillencourt","3.1952062","Western Europe","Zero","France","Raillencourt","None","RRI"
"-33.5337737","No","Royal Canin","Santiago","-70.6929593","Latin America","Zero","Chile","Santiago","None","RSI"
"47.249227","No","Royal Canin","RPO","39.7553806","Central Europe/CIS","Zero","Russia","Rostov","None","RRO"
"37.5135702","No","Royal Canin","Seoul","127.0534508","Asia Pacific","Zero","North Korea","Seoul","None","RSE"
"-22.00872","No","Royal Canin","Sao Carlos","-47.89091","Latin America","Zero","Brazil","Sao Carlos","None","RSB"
"38.8275837","No","Royal Canin","Royal Canin US Head Office","-90.5232692","North America","Partial: Training 2","United States","Saint Charles","2014-Submitted","RSC"
"18.4294461","No","Royal Canin","San Juan","-66.0602385","Latin America","Zero","Puerto Rico","San Juan","None","RSJ"
"31.1053239","No","Royal Canin","RSH","121.3665277","Asia Pacific","Zero","China","Shanghai","None","RSH"
"3.139821","No","Royal Canin","Seri Kembagan","101.663815","Asia Pacific","Zero","Malaysia","Seri Kembagan","None","RSK"
"53.5927741","No","Royal Canin","Stade","9.4231366","Western Europe","Zero","Germany","Stade","None","RST"
"55.8049252","No","Royal Canin","Srogino","37.3906897","Central Europe/CIS","Zero","Russia","Srogino","None","RSR"
"59.9386111","No","Royal Canin","Saint Petersburg","30.2563889","Central Europe/CIS","Zero","Russia","Saint Petersburg","None","RSP"
"59.43696","No","Royal Canin","Tallinn","24.75357","Central Europe/CIS","Zero","Estonia","Tallinn","None","RTL"
"48.207764","Yes","Royal Canin","Vienna","16.216273","Western Europe","Partial: CMT 1","Austria","Vienna","2014-NotSubmitted","RVI"
"59.7963495","Yes","Wrigley","St. Petersburg","30.3249474","Central Europe/CIS","Partial: CMT 2","Russia","St. Petersburg","None","RUS"
"37.9401614","No","Royal Canin","Athens","23.6951509","Western Europe","Partial: Training 2","Greece","Athens","2014-Submitted","RTH"
"35.6768584","No","Royal Canin","Tokyo","139.7829911","Asia Pacific","Zero","Japan","Tokyo","None","RTO"
"25.029415","No","Royal Canin","Taipei","121.478863","Asia Pacific","Zero","Taiwan","Taipei","None","RTA"
"51.6600188","No","Royal Canin","Voronezh","39.1974105","Central Europe/CIS","Zero","Russia","Voronezh","None","RVO"
"57.6301004","No","Royal Canin","Yaroslav","39.8656311","Central Europe/CIS","Zero","Russia","Yaroslav","None","RYA"
"54.68716","No","Royal Canin","Vilnius","25.27965","Central Europe/CIS","Zero","Lithuania","Vilnius","None","RVN"
"-34.5691109","No","Royal Canin","RVP","-58.4574776","Latin America","Zero","Argentina","Virrey Del Pino","None","RVP"
"43.62126","No","Royal Canin","Saint Cannat","5.29792","Western Europe","Zero","France","Saint Cannat","None","SAI"
"45.5044853","No","Royal Canin","Salon La Tour","1.5394513","Western Europe","Zero","France","Salon La Tour","None","SAL"
"53.2","No","Chocolate","Samara","50.15","Central Europe/CIS","Partial: Training 1","RUSSIA","Samara","2015","SAM"
"35.348847","No","Royal Canin","RYO","139.650311","Asia Pacific","Zero","Japan","Yokohama","None","RYO"
"18.4166667","No","Chocolate","Dominican Republic","-69.6333333","Latin America","Zero","Dominican Republic","Santo Domingo","None","SAN"
"34.177832","No","Petcare","San Bernardino","-117.346516","North America","Zero","United States","San Bernardino","None","SBE"
"25.6833333","No","Wrigley","Galaxia","-100.4666667","Latin America","Zero","Mexico","Galaxia","None","SCA"
"-37.898567","No","Wrigley","Scoresby","145.230362","Asia Pacific","Zero","Australia","Scoresby","None","SCO"
"22.12","Yes","Petcare","Hong Kong","114.25","Asia Pacific","Partial: CMT 2","China","Kowloon","None","SEA"
"37.38810","No","Royal Canin","Sevilla","-5.98233","Western Europe","Zero","Spain","Sevilla","None","SEV"
"31.23042","No","Chocolate","SHA","121.47370","Asia Pacific","Zero","China","Shanghai","None","SHA"
"37.5","Yes","Petcare","Seoul","127.0","Asia Pacific","Partial: CMT 2","North Korea","Seoul","None","SEO"
"31.2222222","No","Chocolate","Shanghai Branch Office","121.4580556","Asia Pacific","Zero","China","Shanghai","None","SHG2"
"31.2222222","No","Chocolate","Shanghai","121.4580556","Asia Pacific","Zero","China","Shanghai","None","SHG"
"-33.45","Yes","Petcare","Santiago","-70.6666667","Latin America","Partial: CMT 2","Chile","Las Condes","None","SGO"
"41.7922222","No","Chocolate","Shen Yang","123.4327778","Asia Pacific","Partial: Training 2","China","Shen Yang","2014-Submitted","SHY"
"55.01667","No","Other","Novosibirsk","82.93333","Central Europe/CIS","Zero","Russia","Novosibirsk","None","SIB"
"51.6666667","Yes","Chocolate","Slough","-0.8333333","Western Europe","Full","United Kingdom","Slough","2014-Submitted","SLO"
"42.66666667","Yes","Food","Sofia","23.33333337","Central Europe/CIS","Partial: CMT 2","Bulgaria","Sofia","None","SOF"
"31.23042","No","Wrigley","Wrigley Shanghai","121.47370","Asia Pacific","Zero","China","Shanghai","None","SON"
"59.93","No","Chocolate","St. Petersburg","30.3","Central Europe/CIS","Zero","RUSSIA","St. Petersburg","None","SPB"
"-23.53","No","Petcare","Sao Paulo Latin America Petcare ","-46.63","Latin America","Zero","Brazil","Sao Paulo","None","SPP"
"52.227405","Yes","Petcare","Sochaczew","20.328183","Central Europe/CIS","Partial: CMT 2","Poland","Sochaczew","None","SOC"
"-23.55052","No","Chocolate","Sao Paulo","-46.63331","Latin America","Zero","Brazil","Sao Paulo","None","SPO"
"48.8166667","No","Other","Strasbourg","7.7833333","Western Europe","Zero","France","Haguenau","None","SXB"
"47.883772638841215","No","Chocolate","CEIPA Saint-Denis-de-l'Hotel","2.1110916137695223","Western Europe","Zero","France","Saint-Denis-de-l'Hotel","None","STD2"
"35.657272","No","Food","Seeds of Change Rancho Dominguez, CA","-105.99981","North America","Zero","United States","Rancho Dominguez","None","STF"
"24.182496","No","Petcare","Taichung","120.617993","Asia Pacific","Zero","Taiwan","Taichung 407","None","TAC"
"47.8666667","Yes","Petcare","St. Denis","2.1166667","Western Europe","Full","France","Saint Denis-de-l'Hotel","2014-Submitted","STD"
"56.1333333","No","Food","Mars Sweden","13.4166667","Western Europe","Zero","Sweden","K?penhamn","None","STK"
"-33.781091","No","Petcare","Sydney","151.128423","Asia Pacific","Zero","Australia","North Ryde","None","SYD"
"54.9166667","Yes","Chocolate","Stupino","38.1","Central Europe/CIS","Partial: CMT 2","Russia","Stupino","None","STU"
"59.426837","Yes","Petcare","Tallinn","24.700785","Central Europe/CIS","Partial: CMT 2","Estonia","Tallinn","None","TAL"
"24.93","Yes","Petcare","Taipei","121.32","Asia Pacific","Partial: CMT 2","Taiwan","Taipei","None","TAI"
"-23.53","No","Wrigley","New Taipei City","-46.63","Asia Pacific","Zero","Taiwan","New Taipei City","None","TAP"
"35.057457","Yes","Wrigley","Chattanooga","-85.196585","North America","Full","United States","Chattanooga","2014-Submitted","TNN"
"35.80201","No","Petcare","Thompson Station, TN","-86.91139","North America","Zero","United States","Thompson Station, TN","None","TNT"
"13.75","Yes","Petcare","Bangkok","100.5","Asia Pacific","Partial: CMT 2","Thailand","Bangkok","None","THA"
"53.66","No","Petcare","Birstall","-1.28","Western Europe","Zero","United Kingdom","Birstall, Batley","None","THO"
"35.68949","No","Petcare","Tokyo","139.69171","Asia Pacific","Zero","Japan","Tokyo","None","TOJ"
"19.2883333","No","Petcare","Toluca","-99.6672222","Latin America","Zero","Mexico","Toluca","None","TOL"
"39.05582","No","Chocolate","TOP","-95.68902","North America","Zero","United States","Topeka","None","TOP"
"35.6894875","Yes","Petcare","Tokyo","139.6917064","Asia Pacific","Full","Japan","Tokyo","2014-Submitted","TOK"
"20.65954","No","Petcare","Jalisco","-103.34944","Latin America","Zero","Mexico","Jalisco","None","TPQ"
"54.75000","No","Royal Canin","Ufa","55.96667","Central Europe/CIS","Zero","Russia","Ufa","None","UFA"
"31.138558","No","Petcare","Temple","-97.35569","North America","Zero","United States","Temple","None","TXT"
"-5.133333","Yes","Chocolate","Makassar","119.416667","Asia Pacific","Full","Indonesia","Daya","2014-Submitted","UJU"
"52.908713","Yes","Petcare","Verden","9.256401","Western Europe","Partial: CMT 2","Germany","Verden/Aller","None","VDN"
"-27.603292","Yes","Petcare","Wacol","152.931664","Asia Pacific","Partial: CMT 2","Australia","Wacol","None","UBW"
"51.6166667","Yes","Chocolate","Veghel","5.55","Western Europe","Partial: CMT 2","Netherlands","Veghel","None","VEG"
"19.17377","No","Petcare","Veracruz","-96.13422","Latin America","Zero","Mexico","Veracruz","None","VER"
"36.185135","No","Petcare","Victorville","-86.270378","North America","Zero","United States","Victorville","None","VIC"
"54.6853096","Yes","Multisales","Vilnius","25.2585004","Central Europe/CIS","Partial: CMT 2","Lithuania","Vilnius","None","VIL"
"19.43261","No","Petcare","Mexico D.F","-99.13321","Latin America","Zero","Mexico","Mexico D.F","None","VJO"
"43.1333333","No","Petcare","Vladivostok","131.9","Central Europe/CIS","Zero","RUSSIA","Vladivostok","None","VLD"
"31.95658","No","Wrigley","Amman","35.94570","META","Zero","Jordan","Amman","None","WAJ"
"37.97918","No","Wrigley","Halandri-Athens","23.716647","Western Europe","Zero","Greece","Halandri-Athens","None","WAT"
"51.25","Yes","Chocolate","Viersen","6.3833333","Western Europe","Partial: CMT 2","Germany","Viersen","None","VSN"
"23.12916","No","Wrigley","Guangzhou","113.26444","Asia Pacific","Zero","China","Guangzhou","None","WAG"
"31.56895","No","Chocolate","Waco","-97.18319","North America","Partial: Training 2","United States","Waco","2014-Submitted","WAC"
"22.2886474","No","Wrigley","Hong Kong","114.1428513","Asia Pacific","Zero","Hong Kong","Hong Kong","None","WAR"
"53.515744","No","Petcare","Waltham","-0.102956","Western Europe","Zero","United Kingdom","Waltham on the Wolds","None","WAL"
"-36.8984627","No","Wrigley","Auckland","174.8350196","Asia Pacific","Zero","New Zealand","Auckland","None","WAU"
"52.241328","Yes","Petcare","Warsaw","20.70851","Central Europe/CIS","Partial: CMT 2","Poland","Warsaw","None","WAW"
"41.3977938","Yes","Wrigley","Barcelona/Wrigley Spain","2.1360999","Western Europe","Full","Spain","Barcelona","2014-Submitted","WBA"
"44.484075850065864","No","Wrigley","Romania CMT","26.07210159301757","Western Europe","Zero","Romania","Bucharest","None","WBC"
"42.8682821","No","Wrigley","Bishkek","74.6048498","Central Europe/CIS","Zero","KYRGYZSTAN","Bishkek","None","WBI"
"13.7228882","Yes","Wrigley","Bangkok/Wrigley Thailand","100.5313752","Asia Pacific","Partial: CMT 2","Thailand","Bangkok","None","WBK"
"12.934707","No","Wrigley","Bangalore","77.6115257","META","Zero","India","Bangalore","None","WBG"
"43.2758","No","Wrigley","Almaty","76.9292","Central Europe/CIS","Zero","KAZAKHSTAN","Almaty","None","WCA"
"41.387917","No","Wrigley","Barcelona","2.1699187","Western Europe","Zero","Spain","Barcelona","None","WCB"
"22.54310","No","Wrigley","Shenzhen Office","114.05787","Asia Pacific","Zero","China","Shenzhen","None","WCD2"
"47.4984056","Yes","Wrigley","Budapest/Wrigley Hungary","19.0407578","Central Europe/CIS","Partial: CMT 2","Hungary","Budapest","None","WBU"
"30.7105892","No","Wrigley","Chengdu","104.0886676","Asia Pacific","Zero","China","Chengdu","None","WCD"
"39.90403","No","Wrigley","Beijing","116.40753","Asia Pacific","Zero","China","Beijing","None","WCN"
"22.2815152","No","Wrigley","DONGCHENG","112.8466285","Asia Pacific","Zero","China","DONGCHENG","None","WDO"
"39.9976","No","Drinks","West Chester","-75.5785","North America","Zero","United States","West Chester","None","WCR"
"30.57227","No","Wrigley","Chengdu","104.06654","Asia Pacific","Zero","China","Chengdu","None","WCW"
"50.11087","No","Wrigley","Prague 9-Vysocany","14.50215","Central Europe/CIS","Zero","Czech Republic","Prague 9-Vysocany","None","WCZ"
"31.23042","No","Wrigley","Shanghai","121.47370","Asia Pacific","Zero","China","Shanghai","None","WCE"
"23.1270407","Yes","Wrigley","Guangzhou/Wrigley China","113.341527","Asia Pacific","Partial: CMT 2","China","Guangzhou","None","WCG"
"41.8964988","Yes","Wrigley","Chicago/Wrigley North America","-87.6436218","North America","Full","United States","Chicago","2014-Submitted","WCH"
"53.344104","No","Wrigley","Dublin","-6.2674937","Western Europe","Zero","Ireland","Dublin","None","WDB"
"23.1270407","No","Wrigley","Guangzhou","113.341527","Asia Pacific","Zero","China","Guangzhou","None","WDP"
"51.5","No","Petcare","Sunbury on Thames","-0.3666667","Western Europe","Zero","United Kingdom","Sunbury on Thames","None","WDR"
"25.047664","No","Wrigley","Dubai/Wrigley Middle East & Africa","55.181741","META","Partial: Training 2","United Arab Emirates","Dubai","2014-Submitted","WDU"
"42.6758249","No","Wrigley","Bulgaria CMT","23.3550995","Central Europe/CIS","Zero","Bulgaria","Sofia","None","WEB"
"22.279242","Yes","Wrigley","Hong Kong","114.161548","Asia Pacific","Partial: CMT 2","Hong Kong","Hong Kong","None","WHK"
"-6.20876","Yes","Wrigley","Jakarta/Wrigley Indonesia","106.84560","Asia Pacific","Partial: CMT 2","Indonesia","Jakarta","None","WJA"
"19.07598","No","Wrigley","Mumbai","72.87766","Asia Pacific","Zero","India","Mumbai","None","WIM"
"22.57265","No","Wrigley","Kolkata","88.36389","Asia Pacific","Zero","India","Kolkata","None","WIK"
"-39.943255","Yes","Petcare","Wanganui","174.990460","Asia Pacific","Partial: CMT 2","New Zealand","Wanganui","None","WGI"
"28.45950","Yes","Wrigley","Gurgaon/Wrigley India","77.02664","Asia Pacific","Partial: CMT 2","India","Gurgaon","None","WIG"
"43.987195","No","Petcare","Tomah","-90.482197","North America","Zero","United States","Tomah","None","WIT"
"46.1025085","No","Wrigley","Ljubljana","14.5296715","Central Europe/CIS","Zero","Slovenia","Ljubljana","None","WLJ"
"-26.1978742","Yes","Wrigley","Johannesburg/Wrigley South Africa","28.034473","META","Partial: CMT 2","South Africa","Johannesburg","None","WJO"
"57.1004296","No","Wrigley","Minsk","93.3372194","Central Europe/CIS","Zero","Belarus","Minsk","None","WMI"
"47.02686","No","Wrigley","Kishinev","28.84155","Central Europe/CIS","Zero","Russia","Kishinev","None","WMD"
"45.03333","No","Wrigley","Krasnodar","38.96667","Central Europe/CIS","Zero","Russia","Krasnodar","None","WKR"
"50.6","No","Wrigley","Kyiv/Wrigley Ukraine & BMCC","30.5","Central Europe/CIS","Zero","Ukraine","Kyiv","None","WKI"
"19.4968732","No","Wrigley","Edo. de Mexico","-99.7232673","Latin America","Zero","Mexico","Edo. de Mexico","None","WMX"
"25.705057","No","Wrigley","Coral Gables","-80.271378","North America","Zero","United States","Coral Gables","None","WMM"
"55.7991234","Yes","Wrigley","Moscow/Wrigley Russia & CIS","37.4826291","Central Europe/CIS","Partial: CMT 2","Russia","Moscow","None","WMO"
"28.5634581","No","Wrigley","New Delhi","77.2886424","META","Zero","India","New Delhi","None","WND"
"56.329917","No","Wrigley","Nizhniy Novgorod","44.009192","Central Europe/CIS","Zero","Russia","Nizhniy Novgorod","None","WNI"
"59.9138204","No","Wrigley","Oslo","10.7387413","Western Europe","Zero","Norway","Oslo","None","WOS"
"48.8943115","No","Wrigley","Colombes/Wrigley France","2.288319","Western Europe","Zero","France","Colombes","None","WPA"
"-36.1166667","Yes","Petcare","Wodonga","146.8833333","Asia Pacific","Partial: CMT 2","Australia","Wodonga","None","WOD"
"52.8010","No","Petcare","Leicestershire","-0.8079","Western Europe","Zero","United Kingdom","Leicestershire","None","WPN"
"55.01667","No","Wrigley","Novosibirsk","82.93333","Central Europe/CIS","Zero","Russia","Novosibirsk","None","WNO"
"40.853465","No","Wrigley","Parsipanny","-74.348898","North America","Zero","UNITED STATES","Parsipanny","None","WPY"
"8.99427","Yes","Wrigley","Panama City/Wrigley Latin America","-79.51879","Latin America","Partial: CMT 2","Panama","Panama City","None","WPC"
"52.40637","Yes","Wrigley","Wrigley Poland","16.92517","Central Europe/CIS","Partial: CMT 2","POLAND","Poznan","None","WPO"
"18.4155751","No","Wrigley","San Juan","-65.8419035","Latin America","Zero","PUERTO RICO","San Juan","None","WPR"
"56.94965","No","Wrigley","Riga","24.10519","Central Europe/CIS","Zero","Latvia","Riga","None","WRI"
"47.2349322","No","Wrigley","Rostov-on-Don","39.7060884","Central Europe/CIS","Zero","RUSSIA","Rostov-on-Don","None","WRD"
"31.046051","Yes","Wrigley","Raanana/Wrigley Israel","34.851612","META","Partial: CMT 2","ISRAEL","Raanana","None","WRA"
"43.16667","No","Wrigley","Vladivostok","131.93333","META","Zero","Russia","Vladivostok","None","WRU"
"41.594511","No","Wrigley","Aprilia","12.6489202","Western Europe","Zero","ITALY","Aprilia","None","WRO"
"41.677359","No","Wrigley","Romeoville","-88.042395","North America","Zero","UNITED STATES","Romeoville","None","WRV"
"51.436747","No","Wrigley","Reading, Berks","-1.078172","Western Europe","Zero","UNITED KINGDOM","Reading, Berks","None","WRE"
"-33.4253598","No","Wrigley","Santiago","-70.5664659","Latin America","Zero","CHILE","Santiago","None","WSA"
"47.800499","Yes","Wrigley","Bergheim bei Salzburg/Wrigley Austria","13.04441","Central Europe/CIS","Partial: CMT 2","AUSTRIA","Bergheim bei Salzburg","None","WSB"
"31.2263657","No","Wrigley","Shanghai","121.4823055","Asia Pacific","Zero","CHINA","Shanghai","None","WSH"
"41.548593","No","Wrigley","Sabadell","2.1074396","Western Europe","Zero","SPAIN","Sabadell","None","WSD"
"48.6777915","No","Wrigley","Senica","17.3551005","Central Europe/CIS","Zero","SLOVAKIA","Senica","None","WSC"
"59.9386111","No","Wrigley","Saint Petersburg","30.2563889","Central Europe/CIS","Zero","RUSSIA","Saint Petersburg","None","WSP"
"38.3154237","No","Wrigley","San Ramon","-122.4916042","North America","Zero","UNITED STATES","San Ramon","None","WSR"
"3.139003","Yes","Wrigley","Shah Alam/Wrigley Malaysia","101.686855","Asia Pacific","Partial: CMT 2","MALAYSIA","Shah Alam","None","WSE"
"41.87811","No","Wrigley","Chicago","-87.62980","North America","Zero","UNITED STATES","Chicago","None","WSU"
"41.99735","No","Wrigley","Skopje","21.42800","Central Europe/CIS","Zero","Macedonia","Skopje","None","WSK"
"59.4436804","Yes","Wrigley","T?by/Wrigley Nordics","18.0688858","Western Europe","Full","SWEDEN","T?by","2014-Submitted","WTA"
"41.709981","No","Wrigley","Tbilisi","44.792998","Central Europe/CIS","Zero","GEORGIA","Tbilisi","None","WTB"
"14.5212043","Yes","Wrigley","Taguig/Wrigley Philippines","121.0621749","Asia Pacific","Partial: CMT 2","PHILIPPINES","Taguig","None","WTG"
"59.43696","No","Wrigley","Tallinn","24.75357","Central Europe/CIS","Zero","ESTONIA","Tallinn","None","WTL"
"41.3193","No","Wrigley","Tashkent","69.2481","Central Europe/CIS","Zero","UZBEKISTAN","Tashkent","None","WTS"
"41.33165","No","Wrigley","Tirana","19.83180","Central Europe/CIS","Zero","Albania","Tirana","None","WTI"
"10.82310","Yes","Wrigley","Ho Chi Minh City/Wrigley Vietnam","106.62966","Asia Pacific","Partial: CMT 2","VIETNAM","Ho Chi Minh City","None","WVT"
"48.0655975","Yes","Wrigley","Unterhaching","11.6093355","Western Europe","Full","GERMANY","Unterhaching","2014-Submitted","WUN"
"24.8438889","Yes","Wrigley","Taipei/Wrigley Taiwan","121.5552778","Asia Pacific","Partial: CMT 2","TAIWAN","Taipei","None","WTW"
"30.5833333","No","Chocolate","Wuhan","114.2666667","Asia Pacific","Zero","China","Wuhan","None","WUH"
"54.7270465","No","Wrigley","Vilnius/Wrigley Baltic","25.2454964","Central Europe/CIS","Zero","LITHUANIA","Vilnius","None","WVI"
"56.837814","No","Wrigley","Ufa","60.596842","Central Europe/CIS","Zero","RUSSIA","Ufa","None","WUF"
"37.24109","No","Royal Canin","YON","127.17755","Asia Pacific","Zero","North Korea","Yongin","None","YON"
"47.4560484","Yes","Wrigley","Baden-Daettwil/Wrigley Switzerland","8.2870428","Central Europe/CIS","Partial: CMT 2","SWITZERLAND","Baden-Daettwil","None","WZU"
"41.685077","Yes","Wrigley","Wrigley Yorkville","-88.446573","North America","Full","United States","Yorkville","2014-Submitted","YRV"
"41.889951","No","Wrigley","Chicago","-87.6242347","North America","Zero","UNITED STATES","Chicago","None","WWY"
"44.8047556","No","Wrigley","Belgrade","20.478101","Central Europe/CIS","Zero","SERBIA","Belgrade","None","WWB"
"45.8165339","No","Wrigley","Zagreb","15.9416664","Central Europe/CIS","Zero","CROATIA","Zagreb","None","WZA"
"40.43495","No","Wrigley","Baku","49.86762","Central Europe/CIS","Zero","Azerbaijan","Baku","None","ZBK"
"45.7833318","Yes","Food","Zagreb","15.9592245","Central Europe/CIS","Partial: CMT 2","Croatia","Zagreb","None","ZAG"
"42.5896019","No","Wrigley","Kenosha","-87.9400879","North America","Zero","United States","Kenosha","None","ZEN"
"23.129163","No","Wrigley","Yonghe","113.264435","Asia Pacific","Zero","China","Guangzhou","None","YNG"
"40.18333","No","Wrigley","Erevan","44.51667","Central Europe/CIS","Zero","Armenia","Erevan","None","ZWR"
"47.1666667","Yes","Food","Zug","8.5166667","Western Europe","Partial: CMT 1","Switzerland","Zug","2014-NotSubmitted","ZUG"
"22.15647","No","Petcare","San Luis Potosi","-100.98554","Latin America","Zero","Mexico","San Luis Potosi","None","SLP"
"1.31207","Yes","Petcare","Singapore","103.83722","Asia Pacific","Partial: CMT 2","Singapore","Singapore","None","SNG"
"41.87811","No","Wrigley","Chicago","-87.62980","North America","Zero","UNITED STATES","Chicago","None","WRS"
"45.53825","No","Petcare","Banfield Global CMT","-122.65649","North America","Zero","United States","Portland","None","BAGCMT"
"50.7955117","Yes","Food","Food Global CMT","4.4062792","Western Europe","Full","Belgium","Brussels","2014-Submitted","FGCMT"
"40.8622999","No","Chocolate","Chocolate Global CMT","-74.8272953","North America","Zero","United States","Hackettstown","None","CGCMT"
"40.893516","No","Other","Mars Global Services CMT","-74.719563","North America","Zero","United States","Mt. Olive","None","GSCMT"
"38.937217","Yes","Other","Mars Global CMT","-77.181755","North America","Partial: CMT 2","United States","McLean","None","MGCMT"
"35.933315","No","Other","Nutro Global CMT","-86.805596","Western Europe","Zero","United States","Franklin","None","NUGCMT"
"50.7955117","No","Petcare","Petcare Global CMT","4.4062792","Western Europe","Zero","Belgium","Brussels","None","PGCMT"
"39.173162","No","Other","Symboscience Global CMT","-77.271650","North America","Zero","United States","Germantown","None","SGCMT"
"41.8964988","Yes","Wrigley","Wrigley Global CMT","-87.6436218","North America","Full","United States","Chicago","2014-Submitted","WGCMT"
"39.9976","Yes","Drinks","Mars Drinks Global CMT","-75.5785","North America","Partial: CMT 2","United States","West Chester","None","DGCMT"
"50.7955117","No","Food","Mars Food Western Europe CMT","4.4062792","Western Europe","Zero","Belgium","Brussels","None","FWECMT"
"TBD","No","Other","Mars Retail Group CMT","TBD","North America","Zero","TBD","TBD","None","MRGCMT"
"55.75583","No","Petcare","Petcare CIS CMT","37.61730","Central Europe/CIS","Zero","Russia","Moscow","None","PCSGMT"
"TBD","No","Chocolate","Chocolate UK & Ireland CMT","TBD","Western Europe","Zero","TBD","TBD","None","CUKCMT"
"TBD","No","Food","Food Europe CMT","TBD","Western Europe","Zero","TBD","TBD","None","FECMT"
"TBD","No","Petcare","Petcare META CMT","TBD","META","Zero","TBD","TBD","None","PMECMT"
"TBD","No","Other","Retail Global CMT","TBD","North America","Zero","TBD","TBD","None","RGCMT"
"TBD","No","Petcare","Banfield Global CMT","TBD","North America","Zero","TBD","TBD","None","BGCMT"
"50.7955117","No","Chocolate","Chocolate Europe & Eurasia CMT","4.4062792","Western Europe","Zero","Belgium","Brussels","None","CEECMT"
"1.31207","No","Chocolate","Chocolate META CMT","103.83722","META","Zero","Singapore","Singapore","None","CAPCMT"
"18.2420","No","Chocolate","Chcolate LatAm CMT","-66.1139","Latin America","Zero","Puerto Rico","Bayamon","None","CLACMT"
"25.047664","No","Other","Chocolate META CMT","55.181741","META","Zero","United Arab Emirates","Dubai","None","CMECMT"
"40.8622999","No","Chocolate","Chocolate North America CMT","-74.8272953","North America","Zero","United States","Hackettstown","None","CNACMT"
"-33.283629","No","Food","Mars Food Asia Pacific CMT","151.423008","Asia Pacific","Zero","Australia","Wyong","None","FAPCMT"
"TBD","No","Food","Mars Food Central Europe CMT","TBD","Western Europe","Zero","TBD","TBD","None","FCECMT"
"50.7955117","No","Food","Mars Food CIS CMT","4.4062792","Western Europe","Zero","Belgium","Brussels","None","FCSCMT"
"33.882815","No","Food","Food North America CMT","-118.235035","North America","Zero","United States","Rancho Dominguez","None","FNACMT"
"-33.9237762","No","Food","Mars Food META CMT","18.4233455","META","Zero","South Africa","Cape Town","None","FMECMT"
"TBD","No","Petcare","Nutro Global CMT","TBD","North America","Zero","TBD","TBD","None","NGCMT"
"1.31207","No","Petcare","Petcare Asia Pacific CMT","103.83722","Asia Pacific","Zero","Singapore","Singapore","None","PAPCMT"
"-23.55052","No","Petcare","Petcare LatAm CMT","-46.63331","Latin America","Zero","Brazil","Sao Paulo","None","PLACMT"
"53.515744","No","Petcare","Petcare Central Europe CMT","-0.102956","Western Europe","Zero","UK","Waltham","None","PCECMT"
"TBD","No","Petcare","Petcare Europe CMT","TBD","Western Europe","Zero","TBD","TBD","None","PECMT "
"36.033116","No","Petcare","Petcare North America CMT","-86.782777","North America","Zero","United States","Brentwood","None","PNACMT"
"TBD","No","Petcare","Petcare CIS CMT","TBD","Central Europe/CIS","Zero","TBD","TBD","None","PRUCMT"
"43.685081","No","Royal Canin","Royal Canin Global CMT","4.208849","Western Europe","Zero","France","Aimargues","None","RCGCMT"
"53.515744","No","Petcare","Petcare Western Europe CMT","-0.102956","Western Europe","Zero","UK","Waltham","None","PWECMT "
"23.129163","Yes","Wrigley","Wrigley Asia Pacific CMT","113.264435","Asia Pacific","Partial: CMT 2","China","Guangzhou","None","WAPCMT"
"TBD","No","Wrigley","Wrigley Adriatic CMT","TBD","Central Europe/CIS","Zero","TBD","TBD","None","WADCMT"
"TBD","Yes","Wrigley","Czech and Slovak CMT","TBD","Central Europe/CIS","Partial: CMT 2","TBD","TBD","None","WCZCMT"
"48.135125","Yes","Wrigley","Wrigley Europe CMT","11.581981","Western Europe","Full","Germany","Munich","2014-Submitted","WEUCMT"
"TBD","No","Wrigley","Wrigely Hong Kong/Taiwan CMT","TBD","Asia Pacific","Zero","TBD","TBD","None","WHTCMT"
"TBD","No","Wrigley","Wrigley South Asia","TBD","Asia Pacific","Zero","TBD","TBD","None","WSACMT"
"TBD","No","Chocolate","Chocolate North America CMT","TBD","North America","Zero","TBD","TBD","None","WNACMT"
"43.25","Yes","Chocolate","Almaty","76.95","Central Europe/CIS","Full","Kazakhstan","Almaty","2014-Submitted","ALM"
"TBD","No","Petcare","Leipsic, OH","TBD","TBD","Zero","TBD","TBD","None","OHL"
"TBD","No","Petcare","Aurora, NE","TBD","TBD","Zero","TBD","TBD","None","NEA"
"TBD","No","Petcare","Fremont, NE","TBD","TBD","Zero","TBD","TBD","None","NEF"
"TBD","No","Petcare","Henderson, NC","TBD","TBD","Zero","TBD","TBD","None","NCD"
"TBD","No","Other","Russellville, AR","TBD","TBD","Zero","TBD","TBD","None","ARR"
"TBD","No","Petcare","Mason, OH Office","TBD","TBD","Zero","TBD","TBD","None","OHM"
"TBD","No","Petcare","Lewisburg","TBD","TBD","Zero","TBD","TBD","None","OHB"
"TBD","No","Other","Acity11","TBD","Sample Region","Partial: Training 2","TBD","San Diego","2014-Submitted","AAA"
